start=new Date('2021-11-02T00:00:00.000Z').valueOf();
sats=[{"LAUNCH_DATE":"2020-08-18","TLE_LINE1":"1 46127U 20057L   21305.50944743  .00002267  00000-0  17102-3 0  9992","CENTER_NAME":"EARTH","SEMIMAJOR_AXIS":"6925.353","TIME_SYSTEM":"UTC","PERIAPSIS":"546.135","REF_FRAME":"TEME","MEAN_ANOMALY":"289.3068","OBJECT_ID":"2020-057L","TLE_LINE2":"2 46127  53.0538 230.7324 0001564  70.8090 289.3068 15.06398445 67483","PERIOD":"95.592","REV_AT_EPOCH":"6748","EPOCH":"2021-11-01T12:13:36.257952","FILE":"3196764","OBJECT_TYPE":"PAYLOAD","OBJECT_NAME":"STARLINK-1621","RA_OF_ASC_NODE":"230.7324","INCLINATION":"53.0538","CLASSIFICATION_TYPE":"U","SITE":"AFETR","MEAN_MOTION":"15.06398445","NORAD_CAT_ID":"46127","MEAN_MOTION_DDOT":"0.0000000000000","ELEMENT_SET_NO":"999","MEAN_MOTION_DOT":"0.00002267","ECCENTRICITY":"0.00015640","RCS_SIZE":"LARGE","BSTAR":"0.00017102000000","GP_ID":"188672159","APOAPSIS":"548.301","EPHEMERIS_TYPE":"0","ARG_OF_PERICENTER":"70.8090","MEAN_ELEMENT_THEORY":"SGP4","DECAY_DATE":null,"COUNTRY_CODE":"US"},{"LAUNCH_DATE":"2020-08-18","REF_FRAME":"TEME","PERIAPSIS":"546.023","MEAN_ANOMALY":"290.4982","OBJECT_ID":"2020-057M","CENTER_NAME":"EARTH","TLE_LINE1":"1 46128U 20057M   21305.47074173  .00000694  00000-0  65501-4 0  9999","SEMIMAJOR_AXIS":"6925.365","TIME_SYSTEM":"UTC","PERIOD":"95.592","REV_AT_EPOCH":"6709","TLE_LINE2":"2 46128  53.0546 210.9075 0001743  69.6194 290.4982 15.06394502 67091","EPOCH":"2021-11-01T11:17:52.085472","OBJECT_TYPE":"PAYLOAD","OBJECT_NAME":"STARLINK-1622","FILE":"3196301","RA_OF_ASC_NODE":"210.9075","CLASSIFICATION_TYPE":"U","SITE":"AFETR","INCLINATION":"53.0546","NORAD_CAT_ID":"46128","MEAN_MOTION":"15.06394502","MEAN_MOTION_DDOT":"0.0000000000000","ELEMENT_SET_NO":"999","ECCENTRICITY":"0.00017430","MEAN_MOTION_DOT":"0.00000694","RCS_SIZE":"LARGE","BSTAR":"0.00006550100000","APOAPSIS":"548.437","GP_ID":"188658382","EPHEMERIS_TYPE":"0","ARG_OF_PERICENTER":"69.6194","MEAN_ELEMENT_THEORY":"SGP4","DECAY_DATE":null,"COUNTRY_CODE":"US"},{"GP_ID":"188692416","APOAPSIS":"548.361","EPHEMERIS_TYPE":"0","DECAY_DATE":null,"MEAN_ELEMENT_THEORY":"SGP4","ARG_OF_PERICENTER":"69.8591","COUNTRY_CODE":"US","MEAN_MOTION_DDOT":"0.0000000000000","ELEMENT_SET_NO":"999","MEAN_MOTION_DOT":"0.00001323","ECCENTRICITY":"0.00016700","BSTAR":"0.00010767000000","RCS_SIZE":"LARGE","FILE":"3196819","OBJECT_NAME":"STARLINK-1623","OBJECT_TYPE":"PAYLOAD","RA_OF_ASC_NODE":"209.5323","INCLINATION":"53.0539","SITE":"AFETR","CLASSIFICATION_TYPE":"U","MEAN_MOTION":"15.06403002","NORAD_CAT_ID":"46129","LAUNCH_DATE":"2020-08-18","CENTER_NAME":"EARTH","TLE_LINE1":"1 46129U 20057N   21305.77667418  .00001323  00000-0  10767-3 0  9996","SEMIMAJOR_AXIS":"6925.339","TIME_SYSTEM":"UTC","MEAN_ANOMALY":"290.2577","OBJECT_ID":"2020-057N","PERIAPSIS":"546.048","REF_FRAME":"TEME","TLE_LINE2":"2 46129  53.0539 209.5323 0001670  69.8591 290.2577 15.06403002 67146","PERIOD":"95.592","REV_AT_EPOCH":"6714","EPOCH":"2021-11-01T18:38:24.649152"},{"REV_AT_EPOCH":"6838","PERIOD":"95.592","TLE_LINE2":"2 46130  53.0532 209.6799 0001389  60.2597 299.8530 15.06405491 68382","EPOCH":"2021-11-01T17:50:38.372352","LAUNCH_DATE":"2020-08-18","PERIAPSIS":"546.235","REF_FRAME":"TEME","MEAN_ANOMALY":"299.8530","OBJECT_ID":"2020-057P","TLE_LINE1":"1 46130U 20057P   21305.74349968  .00002058  00000-0  15696-3 0  9994","SEMIMAJOR_AXIS":"6925.332","CENTER_NAME":"EARTH","TIME_SYSTEM":"UTC","CLASSIFICATION_TYPE":"U","SITE":"AFETR","INCLINATION":"53.0532","NORAD_CAT_ID":"46130","MEAN_MOTION":"15.06405491","OBJECT_TYPE":"PAYLOAD","OBJECT_NAME":"STARLINK-1624","FILE":"3196819","RA_OF_ASC_NODE":"209.6799","ECCENTRICITY":"0.00013890","MEAN_MOTION_DOT":"0.00002058","RCS_SIZE":"LARGE","BSTAR":"0.00015696000000","MEAN_MOTION_DDOT":"0.0000000000000","ELEMENT_SET_NO":"999","ARG_OF_PERICENTER":"60.2597","DECAY_DATE":null,"MEAN_ELEMENT_THEORY":"SGP4","COUNTRY_CODE":"US","APOAPSIS":"548.159","GP_ID":"188692666","EPHEMERIS_TYPE":"0"},{"MEAN_MOTION_DDOT":"0.0000000000000","ELEMENT_SET_NO":"999","MEAN_MOTION_DOT":"0.00002372","ECCENTRICITY":"0.00015370","RCS_SIZE":"LARGE","BSTAR":"0.00017808000000","GP_ID":"188692917","APOAPSIS":"548.275","EPHEMERIS_TYPE":"0","ARG_OF_PERICENTER":"70.5304","MEAN_ELEMENT_THEORY":"SGP4","DECAY_DATE":null,"COUNTRY_CODE":"US","LAUNCH_DATE":"2020-08-18","TLE_LINE1":"1 46131U 20057Q   21305.88909474  .00002372  00000-0  17808-3 0  9990","SEMIMAJOR_AXIS":"6925.345","CENTER_NAME":"EARTH","TIME_SYSTEM":"UTC","PERIAPSIS":"546.146","REF_FRAME":"TEME","OBJECT_ID":"2020-057Q","MEAN_ANOMALY":"289.5851","TLE_LINE2":"2 46131  53.0542 229.0286 0001537  70.5304 289.5851 15.06401102 68136","REV_AT_EPOCH":"6813","PERIOD":"95.592","EPOCH":"2021-11-01T21:20:17.785536","FILE":"3196819","OBJECT_TYPE":"PAYLOAD","OBJECT_NAME":"STARLINK-1625","RA_OF_ASC_NODE":"229.0286","INCLINATION":"53.0542","CLASSIFICATION_TYPE":"U","SITE":"AFETR","MEAN_MOTION":"15.06401102","NORAD_CAT_ID":"46131"},{"MEAN_ELEMENT_THEORY":"SGP4","DECAY_DATE":null,"ARG_OF_PERICENTER":"76.5725","COUNTRY_CODE":"US","GP_ID":"188693668","APOAPSIS":"548.449","EPHEMERIS_TYPE":"0","MEAN_MOTION_DOT":"0.00001550","ECCENTRICITY":"0.00017850","BSTAR":"0.00012293000000","RCS_SIZE":"LARGE","MEAN_MOTION_DDOT":"0.0000000000000","ELEMENT_SET_NO":"999","INCLINATION":"53.0545","SITE":"AFETR","CLASSIFICATION_TYPE":"U","MEAN_MOTION":"15.06400237","NORAD_CAT_ID":"46132","FILE":"3196819","OBJECT_NAME":"STARLINK-1630","OBJECT_TYPE":"PAYLOAD","RA_OF_ASC_NODE":"249.1502","TLE_LINE2":"2 46132  53.0545 249.1502 0001785  76.5725 283.5463 15.06400237 67851","REV_AT_EPOCH":"6785","PERIOD":"95.592","EPOCH":"2021-11-01T20:40:29.604864","LAUNCH_DATE":"2020-08-18","TLE_LINE1":"1 46132U 20057R   21305.86145376  .00001550  00000-0  12293-3 0  9992","SEMIMAJOR_AXIS":"6925.348","CENTER_NAME":"EARTH","TIME_SYSTEM":"UTC","OBJECT_ID":"2020-057R","MEAN_ANOMALY":"283.5463","REF_FRAME":"TEME","PERIAPSIS":"545.977"},{"BSTAR":"0.00007254400000","RCS_SIZE":"LARGE","ECCENTRICITY":"0.00015120","MEAN_MOTION_DOT":"0.00000799","ELEMENT_SET_NO":"999","MEAN_MOTION_DDOT":"0.0000000000000","COUNTRY_CODE":"US","DECAY_DATE":null,"MEAN_ELEMENT_THEORY":"SGP4","ARG_OF_PERICENTER":"73.3772","EPHEMERIS_TYPE":"0","APOAPSIS":"548.276","GP_ID":"188691916","EPOCH":"2021-11-01T20:40:29.184960","PERIOD":"95.592","REV_AT_EPOCH":"6840","TLE_LINE2":"2 46133  53.0524 209.1507 0001512  73.3772 286.7383 15.06394938 68403","MEAN_ANOMALY":"286.7383","OBJECT_ID":"2020-057S","PERIAPSIS":"546.182","REF_FRAME":"TEME","TLE_LINE1":"1 46133U 20057S   21305.86144890  .00000799  00000-0  72544-4 0  9993","CENTER_NAME":"EARTH","SEMIMAJOR_AXIS":"6925.364","TIME_SYSTEM":"UTC","LAUNCH_DATE":"2020-08-18","NORAD_CAT_ID":"46133","MEAN_MOTION":"15.06394938","SITE":"AFETR","CLASSIFICATION_TYPE":"U","INCLINATION":"53.0524","RA_OF_ASC_NODE":"209.1507","OBJECT_NAME":"STARLINK-1637","OBJECT_TYPE":"PAYLOAD","FILE":"3196819"},{"LAUNCH_DATE":"2020-08-18","SEMIMAJOR_AXIS":"6925.373","TLE_LINE1":"1 46134U 20057T   21305.73244752  .00001148  00000-0  95955-4 0  9998","CENTER_NAME":"EARTH","TIME_SYSTEM":"UTC","OBJECT_ID":"2020-057T","MEAN_ANOMALY":"286.5180","REF_FRAME":"TEME","PERIAPSIS":"546.186","TLE_LINE2":"2 46134  53.0530 209.7322 0001519  73.5976 286.5180 15.06392156 67139","PERIOD":"95.593","REV_AT_EPOCH":"6713","EPOCH":"2021-11-01T17:34:43.465728","FILE":"3196819","OBJECT_NAME":"STARLINK-1638","OBJECT_TYPE":"PAYLOAD","RA_OF_ASC_NODE":"209.7322","INCLINATION":"53.0530","SITE":"AFETR","CLASSIFICATION_TYPE":"U","MEAN_MOTION":"15.06392156","NORAD_CAT_ID":"46134","MEAN_MOTION_DDOT":"0.0000000000000","ELEMENT_SET_NO":"999","MEAN_MOTION_DOT":"0.00001148","ECCENTRICITY":"0.00015190","BSTAR":"0.00009595500000","RCS_SIZE":"LARGE","GP_ID":"188692166","APOAPSIS":"548.290","EPHEMERIS_TYPE":"0","MEAN_ELEMENT_THEORY":"SGP4","DECAY_DATE":null,"ARG_OF_PERICENTER":"73.5976","COUNTRY_CODE":"US"},{"NORAD_CAT_ID":"46135","MEAN_MOTION":"15.06410215","SITE":"AFETR","CLASSIFICATION_TYPE":"U","INCLINATION":"53.0552","RA_OF_ASC_NODE":"209.6607","OBJECT_NAME":"STARLINK-1639","OBJECT_TYPE":"PAYLOAD","FILE":"3196819","EPOCH":"2021-11-01T17:55:57.079488","PERIOD":"95.591","REV_AT_EPOCH":"6713","TLE_LINE2":"2 46135  53.0552 209.6607 0001781  72.4547 287.6637 15.06410215 67138","MEAN_ANOMALY":"287.6637","OBJECT_ID":"2020-057U","REF_FRAME":"TEME","PERIAPSIS":"545.949","TLE_LINE1":"1 46135U 20057U   21305.74718842  .00000343  00000-0  41918-4 0  9992","CENTER_NAME":"EARTH","SEMIMAJOR_AXIS":"6925.317","TIME_SYSTEM":"UTC","LAUNCH_DATE":"2020-08-18","COUNTRY_CODE":"US","MEAN_ELEMENT_THEORY":"SGP4","DECAY_DATE":null,"ARG_OF_PERICENTER":"72.4547","EPHEMERIS_TYPE":"0","APOAPSIS":"548.416","GP_ID":"188693418","BSTAR":"0.00004191800000","RCS_SIZE":"LARGE","ECCENTRICITY":"0.00017810","MEAN_MOTION_DOT":"0.00000343","ELEMENT_SET_NO":"999","MEAN_MOTION_DDOT":"0.0000000000000"},{"FILE":"3196819","OBJECT_NAME":"STARLINK-1643","OBJECT_TYPE":"PAYLOAD","RA_OF_ASC_NODE":"239.4483","INCLINATION":"53.0535","SITE":"AFETR","CLASSIFICATION_TYPE":"U","MEAN_MOTION":"15.06396513","NORAD_CAT_ID":"46136","LAUNCH_DATE":"2020-08-18","CENTER_NAME":"EARTH","TLE_LINE1":"1 46136U 20057V   21305.79602926  .00001508  00000-0  12010-3 0  9997","SEMIMAJOR_AXIS":"6925.359","TIME_SYSTEM":"UTC","MEAN_ANOMALY":"292.3954","OBJECT_ID":"2020-057V","PERIAPSIS":"546.134","REF_FRAME":"TEME","TLE_LINE2":"2 46136  53.0535 239.4483 0001575  67.7202 292.3954 15.06396513 66722","PERIOD":"95.592","REV_AT_EPOCH":"6672","EPOCH":"2021-11-01T19:06:16.928064","GP_ID":"188693168","APOAPSIS":"548.315","EPHEMERIS_TYPE":"0","MEAN_ELEMENT_THEORY":"SGP4","DECAY_DATE":null,"ARG_OF_PERICENTER":"67.7202","COUNTRY_CODE":"US","MEAN_MOTION_DDOT":"0.0000000000000","ELEMENT_SET_NO":"999","MEAN_MOTION_DOT":"0.00001508","ECCENTRICITY":"0.00015750","BSTAR":"0.00012010000000","RCS_SIZE":"LARGE"}];
